HAWK-11B                
1 62379U 24247C   26068.44730104  .00009093  00000+0  32842-3 0  9993
2 62379  45.0161 115.7610 0004690 333.0326  27.0314 15.28847070 67738
STARLINK-35410          
1 66024U 25232V   26068.38372192  .00015825  00000+0  54528-3 0  9996
2 66024  53.1578 104.9751 0001238  87.7374 272.3769 15.30201096 23396
